STARLINK-35283          
1 66478U 25262Y   26165.13566963  .00029228  00000+0  10673-2 0  9998
2 66478  43.0023 111.7407 0000793 261.2767  98.7995 15.27583942 33656
STARLINK-35581          
1 66479U 25262Z   26165.15222669  .00018152  00000+0  66740-3 0  9994
2 66479  42.9999 111.0020 0004415 289.1281  70.9092 15.27579666 33665
STARLINK-35670          
1 66480U 25262AA  26165.12667475  .00025335  00000+0  92658-3 0  9999
2 66480  43.0026 111.6708 0000460 169.8151 190.2710 15.27596148 33651
STARLINK-35698          
1 66481U 25262AB  26165.15479666  .00028572  00000+0  10433-2 0  9992
2 66481  43.0028 111.0219 0000456 138.6987 221.3899 15.27595896 33665
STARLINK-35648          
1 66482U 25262AC  26165.00002315 -.00007214  00000+0 -25299-3 0  9999
2 66482  43.0029 112.1330 0001397 278.9576 209.9245 15.27563747  5880
STARLINK-35654          
1 66483U 25262AD  26164.57401610  .00015902  00000+0  58536-3 0  9993
2 66483  43.0084 114.4037 0005213 262.8495  97.1764 15.27615430 33571
STARLINK-35371          
1 66484U 25262AE  26165.14850351  .00029991  00000+0  10937-2 0  9993
2 66484  43.0032 111.8359 0002163 119.1531 240.9537 15.27617549 33657
STARLINK-34774          
1 66485U 25263A   26165.14415755  .00021293  00000+0  78054-3 0  9992
2 66485  42.9990 165.6893 0002134 226.5078 133.5597 15.27601899 33650
STARLINK-34844          
1 66486U 25263B   26164.29284958  .00014888  00000+0  54892-3 0  9993
2 66486  43.0075 170.4860 0000856 278.1745  81.9010 15.27611132 33475
STARLINK-34733          
1 66487U 25263C   26164.87875520  .00016046  00000+0  59084-3 0  9995
2 66487  42.9985 167.1375 0002671 278.5034  81.5515 15.27607934 33617
STARLINK-35515          
1 66488U 25263D   26164.69416611  .00022505  00000+0  82436-3 0  9992
2 66488  42.9976 168.3286 0000950 302.8809  57.1951 15.27599249 33589
STARLINK-35696          
1 66489U 25263E   26164.70700990  .00015640  00000+0  57645-3 0  9997
2 66489  42.9944 168.4355 0002160 264.1446  95.9159 15.27591231 33588
STARLINK-35693          
1 66490U 25263F   26164.29670684  .00025314  00000+0  92573-3 0  9997
2 66490  42.9971 170.5099 0000407 265.0343  95.0463 15.27598785 33521
STARLINK-35663          
1 66491U 25263G   26164.71601453  .00002559  00000+0  10251-3 0  9992
2 66491  43.0001 168.4924 0000971 329.5729  30.5067 15.27568960 33583
STARLINK-35673          
1 66492U 25263H   26164.70443868  .00025121  00000+0  91865-3 0  9996
2 66492  42.9881 168.4118 0002391 278.2472  81.8108 15.27601716 33588
STARLINK-35597          
1 66493U 25263J   26164.72887048  .00017445  00000+0  64193-3 0  9995
2 66493  43.0046 168.6007 0000653 307.6896  52.3897 15.27581048 33582
STARLINK-35689          
1 66494U 25263K   26164.73656682  .00021349  00000+0  78192-3 0  9997
2 66494  43.0007 168.6586 0002931 268.8244  91.2272 15.27626984 33586
STARLINK-35832          
1 66495U 25263L   26164.70060545  .00023326  00000+0  85413-3 0  9993
2 66495  42.9967 168.3793 0001962 278.3759  81.6870 15.27593832 33589
STARLINK-35909          
1 66496U 25263M   26164.72371518  .00011318  00000+0  42005-3 0  9999
2 66496  43.0014 168.5551 0001615 275.1733  84.8934 15.27590359 33588
STARLINK-35899          
1 66497U 25263N   26164.29798909  .00019349  00000+0  71005-3 0  9993
2 66497  42.9995 170.5125 0000490 228.4247 131.6562 15.27615696 33520
STARLINK-35907          
1 66498U 25263P   26164.46088391  .00020729  00000+0  75931-3 0  9996
2 66498  43.0033 170.0312 0001997 268.4734  91.5889 15.27638457 33545
STARLINK-35816          
1 66499U 25263Q   26164.73273388  .00013732  00000+0  50723-3 0  9997
2 66499  43.0048 168.6301 0002638 268.8147  91.2403 15.27602612 33585
STARLINK-35894          
1 66500U 25263R   26164.70524021  .00020873  00000+0  76533-3 0  9991
2 66500  42.9956 171.8781 0002393 276.7876  83.2704 15.27602024 33545
STARLINK-35897          
1 66501U 25263S   26164.71087737  .00020661  00000+0  75758-3 0  9994
2 66501  42.9877 168.4609 0003072 266.1394  93.9106 15.27604459 33584
STARLINK-35922          
1 66502U 25263T   26164.73014021  .00015784  00000+0  58162-3 0  9993
2 66502  43.0020 168.6076 0001833 282.4055  77.6591 15.27593772 33587
STARLINK-35917          
1 66503U 25263U   26164.32626129  .00023793  00000+0  87072-3 0  9998
2 66503  43.0003 170.7308 0002408 280.7159  79.3422 15.27602618 33522
STARLINK-35916          
1 66504U 25263V   26165.00002315  .00028109  00000+0  10277-2 0  9998
2 66504  42.9986 170.4642 0001353 258.8442 192.1936 15.27560625  5881
STARLINK-34766          
1 66505U 25263W   26164.48257902  .00017553  00000+0  64532-3 0  9999
2 66505  43.0063 169.3243 0003092 278.9370  81.1132 15.27605445 33559
STARLINK-34765          
1 66506U 25263X   26164.70829586  .00012021  00000+0  44534-3 0  9993
2 66506  42.9941 168.4394 0002059 268.7325  91.3291 15.27601253 33584
STARLINK-34767          
1 66507U 25263Y   26164.72628910  .00003932  00000+0  15226-3 0  9991
2 66507  42.9914 168.5796 0000196 281.5206  78.5623 15.27588453 33585
