OBJECT_NAME,OBJECT_ID,EPOCH,MEAN_MOTION,ECCENTRICITY,INCLINATION,RA_OF_ASC_NODE,ARG_OF_PERICENTER,MEAN_ANOMALY,EPHEMERIS_TYPE,CLASSIFICATION_TYPE,NORAD_CAT_ID,ELEMENT_SET_NO,REV_AT_EPOCH,BSTAR,MEAN_MOTION_DOT,MEAN_MOTION_DDOT
STARLINK-35283,2025-262Y,2026-06-14T03:15:21.856032,15.27583942,.0000793,43.0023,111.7407,261.2767,98.7995,0,U,66478,999,3365,.10673E-2,.29228E-3,0
STARLINK-35581,2025-262Z,2026-06-14T03:39:12.386016,15.27579666,.0004415,42.9999,111.0020,289.1281,70.9092,0,U,66479,999,3366,.6674E-3,.18152E-3,0
STARLINK-35670,2025-262AA,2026-06-14T03:02:24.698400,15.27596148,.000046,43.0026,111.6708,169.8151,190.2710,0,U,66480,999,3365,.92658E-3,.25335E-3,0
STARLINK-35698,2025-262AB,2026-06-14T03:42:54.431424,15.27595896,.0000456,43.0028,111.0219,138.6987,221.3899,0,U,66481,999,3366,.10433E-2,.28572E-3,0
STARLINK-35648,2025-262AC,2026-06-14T00:00:02.000160,15.27563747,.0001397,43.0029,112.1330,278.9576,209.9245,0,U,66482,999,588,-.25299E-3,-.7214E-4,0
STARLINK-35654,2025-262AD,2026-06-13T13:46:34.991040,15.27615430,.0005213,43.0084,114.4037,262.8495,97.1764,0,U,66483,999,3357,.58536E-3,.15902E-3,0
STARLINK-35371,2025-262AE,2026-06-14T03:33:50.703264,15.27617549,.0002163,43.0032,111.8359,119.1531,240.9537,0,U,66484,999,3365,.10937E-2,.29991E-3,0
STARLINK-34774,2025-263A,2026-06-14T03:27:35.212320,15.27601899,.0002134,42.9990,165.6893,226.5078,133.5597,0,U,66485,999,3365,.78054E-3,.21293E-3,0
STARLINK-34844,2025-263B,2026-06-13T07:01:42.203712,15.27611132,.0000856,43.0075,170.4860,278.1745,81.9010,0,U,66486,999,3347,.54892E-3,.14888E-3,0
STARLINK-34733,2025-263C,2026-06-13T21:05:24.449280,15.27607934,.00026719,42.9985,167.1375,278.5034,81.5515,0,U,66487,999,3361,.59083944E-3,.16046E-3,0
STARLINK-35515,2025-263D,2026-06-13T16:39:35.951904,15.27599249,.00009507,42.9976,168.3286,302.8809,57.1951,0,U,66488,999,3358,.82435798E-3,.22505E-3,0
STARLINK-35696,2025-263E,2026-06-13T16:58:05.655360,15.27591231,.00021602,42.9944,168.4355,264.1446,95.9159,0,U,66489,999,3358,.5764494E-3,.1564E-3,0
STARLINK-35693,2025-263F,2026-06-13T07:07:15.470976,15.27598785,.0000407,42.9971,170.5099,265.0343,95.0463,0,U,66490,999,3352,.92573E-3,.25314E-3,0
STARLINK-35663,2025-263G,2026-06-13T17:11:03.655392,15.27568960,.00009715,43.0001,168.4924,329.5729,30.5067,0,U,66491,999,3358,.1025088E-3,.2559E-4,0
STARLINK-35673,2025-263H,2026-06-13T16:54:23.501952,15.27601716,.00023916,42.9881,168.4118,278.2472,81.8108,0,U,66492,999,3358,.91864971E-3,.25121E-3,0
STARLINK-35597,2025-263J,2026-06-13T17:29:34.409472,15.27581048,.00006533,43.0046,168.6007,307.6896,52.3897,0,U,66493,999,3358,.64192573E-3,.17445E-3,0
STARLINK-35689,2025-263K,2026-06-13T17:40:39.373248,15.27626984,.00029316,43.0007,168.6586,268.8244,91.2272,0,U,66494,999,3358,.78191925E-3,.21349E-3,0
STARLINK-35832,2025-263L,2026-06-13T16:48:52.310880,15.27593832,.00019627,42.9967,168.3793,278.3759,81.6870,0,U,66495,999,3358,.85412821E-3,.23326E-3,0
STARLINK-35909,2025-263M,2026-06-13T17:22:08.991552,15.27590359,.00016158,43.0014,168.5551,275.1733,84.8934,0,U,66496,999,3358,.42005161E-3,.11318E-3,0
STARLINK-35899,2025-263N,2026-06-13T07:09:06.257376,15.27615696,.000049,42.9995,170.5125,228.4247,131.6562,0,U,66497,999,3352,.71005E-3,.19349E-3,0
STARLINK-35907,2025-263P,2026-06-13T11:03:40.369824,15.27638457,.00019976,43.0033,170.0312,268.4734,91.5889,0,U,66498,999,3354,.75930879E-3,.20729E-3,0
STARLINK-35816,2025-263Q,2026-06-13T17:35:08.207232,15.27602612,.00026387,43.0048,168.6301,268.8147,91.2403,0,U,66499,999,3358,.50723433E-3,.13732E-3,0
STARLINK-35894,2025-263R,2026-06-13T16:55:32.754144,15.27602024,.00023936,42.9956,171.8781,276.7876,83.2704,0,U,66500,999,3354,.76532511E-3,.20873E-3,0
STARLINK-35897,2025-263S,2026-06-13T17:03:39.804768,15.27604459,.00030724,42.9877,168.4609,266.1394,93.9106,0,U,66501,999,3358,.75758018E-3,.20661E-3,0
STARLINK-35922,2025-263T,2026-06-13T17:31:24.114144,15.27593772,.0001833,43.0020,168.6076,282.4055,77.6591,0,U,66502,999,3358,.58161872E-3,.15784E-3,0
STARLINK-35917,2025-263U,2026-06-13T07:49:48.975456,15.27602618,.00024089,43.0003,170.7308,280.7159,79.3422,0,U,66503,999,3352,.87072401E-3,.23793E-3,0
STARLINK-35916,2025-263V,2026-06-14T00:00:02.000160,15.27560625,.0001353,42.9986,170.4642,258.8442,192.1936,0,U,66504,999,588,.10277E-2,.28109E-3,0
STARLINK-34766,2025-263W,2026-06-13T11:34:54.827328,15.27605445,.00030922,43.0063,169.3243,278.9370,81.1132,0,U,66505,999,3355,.64531999E-3,.17553E-3,0
STARLINK-34765,2025-263X,2026-06-13T16:59:56.762304,15.27601253,.00020595,42.9941,168.4394,268.7325,91.3291,0,U,66506,999,3358,.44533673E-3,.12021E-3,0
STARLINK-34767,2025-263Y,2026-06-13T17:25:51.378240,15.27588453,.00001963,42.9914,168.5796,281.5206,78.5623,0,U,66507,999,3358,.15226032E-3,.3932E-4,0
